<?xml version="1.0" encoding="UTF-8"?>
<gpx creator="Garmin Connect" version="1.1"
  xsi:schemaLocation="http://www.topografix.com/GPX/1/1 http://www.topografix.com/GPX/11.xsd"
  xmlns:ns3="http://www.garmin.com/xmlschemas/TrackPointExtension/v1"
  xmlns="http://www.topografix.com/GPX/1/1"
  xmlns:xsi="http://www.w3.org/2001/XMLSchema-instance" xmlns:ns2="http://www.garmin.com/xmlschemas/GpxExtensions/v3">
  <metadata>
    <name>Roiano Cicli​smo 6,1 km - cronoscalata Teramo Bike Experience</name>
    <link href="connect.garmin.com">
      <text>Garmin Connect</text>
    </link>
    <time>2026-05-08T12:28:33.000Z</time>
  </metadata>
  <trk>
    <name>Roiano Cicli​smo 6,1 km - cronoscalata Teramo Bike Experience</name>
    <trkseg>
      <trkpt lat="42.703551230952144" lon="13.636934598907828">
        <ele>687.01</ele>
      </trkpt>
      <trkpt lat="42.70359992980957" lon="13.636844158172607">
        <ele>687.97</ele>
      </trkpt>
      <trkpt lat="42.7037073019892" lon="13.63667232915759">
        <ele>689.19</ele>
      </trkpt>
      <trkpt lat="42.70381450653076" lon="13.636500835418701">
        <ele>690.43</ele>
      </trkpt>
      <trkpt lat="42.703857421875" lon="13.636329174041748">
        <ele>691.66</ele>
      </trkpt>
      <trkpt lat="42.70377133972943" lon="13.635920556262136">
        <ele>693.43</ele>
      </trkpt>
      <trkpt lat="42.70368576049805" lon="13.63551378250122">
        <ele>695.78</ele>
      </trkpt>
      <trkpt lat="42.70368584431708" lon="13.63527774810791">
        <ele>697.88</ele>
      </trkpt>
      <trkpt lat="42.70377159118652" lon="13.634998798370361">
        <ele>699.96</ele>
      </trkpt>
      <trkpt lat="42.703857421875" lon="13.634891510009766">
        <ele>701.8</ele>
      </trkpt>
      <trkpt lat="42.70405054092407" lon="13.634827136993408">
        <ele>703.56</ele>
      </trkpt>
      <trkpt lat="42.704275511205196" lon="13.634827136993408">
        <ele>705.18</ele>
      </trkpt>
      <trkpt lat="42.704501152038574" lon="13.634827136993408">
        <ele>706.44</ele>
      </trkpt>
      <trkpt lat="42.70462989807129" lon="13.63476276397705">
        <ele>707.37</ele>
      </trkpt>
      <trkpt lat="42.70472662523389" lon="13.634451040998101">
        <ele>708.84</ele>
      </trkpt>
      <trkpt lat="42.70482301712036" lon="13.634140491485596">
        <ele>710.68</ele>
      </trkpt>
      <trkpt lat="42.70493030548096" lon="13.633925914764404">
        <ele>712.34</ele>
      </trkpt>
      <trkpt lat="42.704994678497314" lon="13.633840084075928">
        <ele>713.54</ele>
      </trkpt>
      <trkpt lat="42.705230712890625" lon="13.633646965026855">
        <ele>714.53</ele>
      </trkpt>
      <trkpt lat="42.705327440053225" lon="13.633345970883965">
        <ele>715.87</ele>
      </trkpt>
      <trkpt lat="42.7054238319397" lon="13.63304615020752">
        <ele>717.27</ele>
      </trkpt>
      <trkpt lat="42.70560630597174" lon="13.632809948176146">
        <ele>718.37</ele>
      </trkpt>
      <trkpt lat="42.70578861236572" lon="13.632574081420898">
        <ele>719.21</ele>
      </trkpt>
      <trkpt lat="42.705789702013135" lon="13.632563017308712">
        <ele>720.12</ele>
      </trkpt>
      <trkpt lat="42.70581007003784" lon="13.632359504699707">
        <ele>722.03</ele>
      </trkpt>
      <trkpt lat="42.7057671546936" lon="13.63227367401123">
        <ele>723.12</ele>
      </trkpt>
      <trkpt lat="42.70568132400513" lon="13.632252216339111">
        <ele>724.31</ele>
      </trkpt>
      <trkpt lat="42.705445289611816" lon="13.632359504699707">
        <ele>725.84</ele>
      </trkpt>
      <trkpt lat="42.705295169726014" lon="13.632455980405211">
        <ele>727.14</ele>
      </trkpt>
      <trkpt lat="42.70514488220215" lon="13.63255262374878">
        <ele>728.61</ele>
      </trkpt>
      <trkpt lat="42.70505888387561" lon="13.632735181599855">
        <ele>729.73</ele>
      </trkpt>
      <trkpt lat="42.704973220825195" lon="13.632917404174805">
        <ele>730.81</ele>
      </trkpt>
      <trkpt lat="42.70480147562921" lon="13.633099794387817">
        <ele>732.09</ele>
      </trkpt>
      <trkpt lat="42.70462989807129" lon="13.63328218460083">
        <ele>733.47</ele>
      </trkpt>
      <trkpt lat="42.70447952672839" lon="13.633518386632204">
        <ele>734.83</ele>
      </trkpt>
      <trkpt lat="42.70432949066162" lon="13.633754253387451">
        <ele>735.94</ele>
      </trkpt>
      <trkpt lat="42.704222202301025" lon="13.63377571105957">
        <ele>737.06</ele>
      </trkpt>
      <trkpt lat="42.70415782928467" lon="13.633689880371094">
        <ele>738.47</ele>
      </trkpt>
      <trkpt lat="42.70415782928467" lon="13.633604049682617">
        <ele>740.04</ele>
      </trkpt>
      <trkpt lat="42.7043080329895" lon="13.633389472961426">
        <ele>741.83</ele>
      </trkpt>
      <trkpt lat="42.70432949066162" lon="13.63328218460083">
        <ele>743.38</ele>
      </trkpt>
      <trkpt lat="42.70435094833374" lon="13.633067607879639">
        <ele>745.09</ele>
      </trkpt>
      <trkpt lat="42.70432949066162" lon="13.632745742797852">
        <ele>746.86</ele>
      </trkpt>
      <trkpt lat="42.70435094833374" lon="13.632466793060303">
        <ele>748.66</ele>
      </trkpt>
      <trkpt lat="42.7044153213501" lon="13.632338047027588">
        <ele>750.38</ele>
      </trkpt>
      <trkpt lat="42.70463534630835" lon="13.632042836397886">
        <ele>752.07</ele>
      </trkpt>
      <trkpt lat="42.7048553712666" lon="13.631747625768185">
        <ele>753.86</ele>
      </trkpt>
      <trkpt lat="42.70507548004389" lon="13.631452415138483">
        <ele>756.02</ele>
      </trkpt>
      <trkpt lat="42.70529508590698" lon="13.631157875061035">
        <ele>757.95</ele>
      </trkpt>
      <trkpt lat="42.70533800125122" lon="13.631093502044678">
        <ele>759.84</ele>
      </trkpt>
      <trkpt lat="42.70535945892334" lon="13.630878925323486">
        <ele>761.97</ele>
      </trkpt>
      <trkpt lat="42.705230712890625" lon="13.630707263946533">
        <ele>764.28</ele>
      </trkpt>
      <trkpt lat="42.70512342453003" lon="13.630707263946533">
        <ele>766.25</ele>
      </trkpt>
      <trkpt lat="42.70489828661084" lon="13.630809020251036">
        <ele>768.19</ele>
      </trkpt>
      <trkpt lat="42.704673148691654" lon="13.63091086037457">
        <ele>770.23</ele>
      </trkpt>
      <trkpt lat="42.7044480945915" lon="13.631012700498104">
        <ele>772.21</ele>
      </trkpt>
      <trkpt lat="42.704222202301025" lon="13.631114959716797">
        <ele>774.34</ele>
      </trkpt>
      <trkpt lat="42.70413637161255" lon="13.631200790405273">
        <ele>776.06</ele>
      </trkpt>
      <trkpt lat="42.70394308492541" lon="13.631469095125794">
        <ele>777.63</ele>
      </trkpt>
      <trkpt lat="42.703750133514404" lon="13.631737232208252">
        <ele>778.79</ele>
      </trkpt>
      <trkpt lat="42.70362138748169" lon="13.631887435913086">
        <ele>780.29</ele>
      </trkpt>
      <trkpt lat="42.70355701446533" lon="13.631887435913086">
        <ele>781.75</ele>
      </trkpt>
      <trkpt lat="42.703449726104736" lon="13.631844520568848">
        <ele>783.23</ele>
      </trkpt>
      <trkpt lat="42.70321377553046" lon="13.631701525300741">
        <ele>784.81</ele>
      </trkpt>
      <trkpt lat="42.70297790877521" lon="13.631558530032635">
        <ele>786.4</ele>
      </trkpt>
      <trkpt lat="42.702741622924805" lon="13.631415367126465">
        <ele>787.98</ele>
      </trkpt>
      <trkpt lat="42.70251648500562" lon="13.63132962025702">
        <ele>789.6</ele>
      </trkpt>
      <trkpt lat="42.7022910118103" lon="13.631243705749512">
        <ele>791.43</ele>
      </trkpt>
      <trkpt lat="42.70201239734888" lon="13.631211519241333">
        <ele>792.92</ele>
      </trkpt>
      <trkpt lat="42.701733112335205" lon="13.631179332733154">
        <ele>794.15</ele>
      </trkpt>
      <trkpt lat="42.70164728164673" lon="13.631200790405273">
        <ele>795.3</ele>
      </trkpt>
      <trkpt lat="42.701454162597656" lon="13.631372367963195">
        <ele>796.11</ele>
      </trkpt>
      <trkpt lat="42.701261043548584" lon="13.63154411315918">
        <ele>796.84</ele>
      </trkpt>
      <trkpt lat="42.70113229751587" lon="13.63154411315918">
        <ele>797.97</ele>
      </trkpt>
      <trkpt lat="42.70104646682739" lon="13.631372451782227">
        <ele>799.26</ele>
      </trkpt>
      <trkpt lat="42.70104646682739" lon="13.631146559491754">
        <ele>800.71</ele>
      </trkpt>
      <trkpt lat="42.70104646682739" lon="13.630921840667725">
        <ele>802.12</ele>
      </trkpt>
      <trkpt lat="42.7009391784668" lon="13.630621433258057">
        <ele>803.59</ele>
      </trkpt>
      <trkpt lat="42.70081043243408" lon="13.630363941192627">
        <ele>805.28</ele>
      </trkpt>
      <trkpt lat="42.70068168640137" lon="13.630342483520508">
        <ele>806.55</ele>
      </trkpt>
      <trkpt lat="42.70057439804077" lon="13.630406856536865">
        <ele>807.66</ele>
      </trkpt>
      <trkpt lat="42.70035973750055" lon="13.630664432421327">
        <ele>808.67</ele>
      </trkpt>
      <trkpt lat="42.70014524459839" lon="13.630921840667725">
        <ele>809.54</ele>
      </trkpt>
      <trkpt lat="42.69995229318738" lon="13.63099685870111">
        <ele>810.78</ele>
      </trkpt>
      <trkpt lat="42.699759006500244" lon="13.631072044372559">
        <ele>812.2</ele>
      </trkpt>
      <trkpt lat="42.69969463348389" lon="13.631157875061035">
        <ele>813.16</ele>
      </trkpt>
      <trkpt lat="42.69956588745117" lon="13.631501197814941">
        <ele>813.75</ele>
      </trkpt>
      <trkpt lat="42.699458599090576" lon="13.631608486175537">
        <ele>814.61</ele>
      </trkpt>
      <trkpt lat="42.69932985305786" lon="13.631565570831299">
        <ele>815.74</ele>
      </trkpt>
      <trkpt lat="42.69909381866455" lon="13.63130807876587">
        <ele>817.33</ele>
      </trkpt>
      <trkpt lat="42.69890069961548" lon="13.631243705749512">
        <ele>818.56</ele>
      </trkpt>
      <trkpt lat="42.69879341125488" lon="13.63128662109375">
        <ele>819.58</ele>
      </trkpt>
      <trkpt lat="42.698729038238525" lon="13.631372451782227">
        <ele>820.53</ele>
      </trkpt>
      <trkpt lat="42.69855737686157" lon="13.631694316864014">
        <ele>821.37</ele>
      </trkpt>
      <trkpt lat="42.698471546173096" lon="13.63180160522461">
        <ele>822.42</ele>
      </trkpt>
      <trkpt lat="42.69842863082886" lon="13.631823062896729">
        <ele>823.47</ele>
      </trkpt>
      <trkpt lat="42.698214054107666" lon="13.631758689880371">
        <ele>824.89</ele>
      </trkpt>
      <trkpt lat="42.69810676574707" lon="13.63180160522461">
        <ele>826.08</ele>
      </trkpt>
      <trkpt lat="42.69789218902588" lon="13.6320161819458">
        <ele>827.01</ele>
      </trkpt>
      <trkpt lat="42.697763442993164" lon="13.631994724273682">
        <ele>828.15</ele>
      </trkpt>
      <trkpt lat="42.69758113659918" lon="13.631898164749146">
        <ele>829.46</ele>
      </trkpt>
      <trkpt lat="42.69739866256714" lon="13.63180160522461">
        <ele>830.82</ele>
      </trkpt>
      <trkpt lat="42.69718425348401" lon="13.631865894421935">
        <ele>831.92</ele>
      </trkpt>
      <trkpt lat="42.696969509124756" lon="13.631930351257324">
        <ele>833.22</ele>
      </trkpt>
      <trkpt lat="42.69686222076416" lon="13.631908893585205">
        <ele>834.62</ele>
      </trkpt>
      <trkpt lat="42.69686230458319" lon="13.631908893585205">
        <ele>836.01</ele>
      </trkpt>
      <trkpt lat="42.69669055938721" lon="13.63178014755249">
        <ele>837.64</ele>
      </trkpt>
      <trkpt lat="42.69660472869873" lon="13.631651401519775">
        <ele>839.24</ele>
      </trkpt>
      <trkpt lat="42.69649727270007" lon="13.631425760686398">
        <ele>841.01</ele>
      </trkpt>
      <trkpt lat="42.69639015197754" lon="13.631200790405273">
        <ele>842.82</ele>
      </trkpt>
      <trkpt lat="42.69630432128906" lon="13.631093502044678">
        <ele>844.61</ele>
      </trkpt>
      <trkpt lat="42.69606828689575" lon="13.631093502044678">
        <ele>846.32</ele>
      </trkpt>
      <trkpt lat="42.69582529552281" lon="13.631186373531818">
        <ele>847.9</ele>
      </trkpt>
      <trkpt lat="42.6955823879689" lon="13.631279245018959">
        <ele>849.44</ele>
      </trkpt>
      <trkpt lat="42.6953387260437" lon="13.631372451782227">
        <ele>850.76</ele>
      </trkpt>
      <trkpt lat="42.695209980010986" lon="13.631372451782227">
        <ele>852.18</ele>
      </trkpt>
      <trkpt lat="42.69503831863403" lon="13.63128662109375">
        <ele>853.74</ele>
      </trkpt>
      <trkpt lat="42.69482374191284" lon="13.630986213684082">
        <ele>855.85</ele>
      </trkpt>
      <trkpt lat="42.694716453552246" lon="13.630921840667725">
        <ele>857.36</ele>
      </trkpt>
      <trkpt lat="42.69454479217529" lon="13.630814552307129">
        <ele>858.85</ele>
      </trkpt>
      <trkpt lat="42.69441604614258" lon="13.630814552307129">
        <ele>860.17</ele>
      </trkpt>
      <trkpt lat="42.69435167312622" lon="13.630836009979248">
        <ele>861.46</ele>
      </trkpt>
      <trkpt lat="42.694222927093506" lon="13.631072044372559">
        <ele>862.41</ele>
      </trkpt>
      <trkpt lat="42.69411563873291" lon="13.631415367126465">
        <ele>863.64</ele>
      </trkpt>
      <trkpt lat="42.694029808044434" lon="13.631608486175537">
        <ele>865.0</ele>
      </trkpt>
      <trkpt lat="42.69382579252124" lon="13.631909061223269">
        <ele>866.39</ele>
      </trkpt>
      <trkpt lat="42.69362177699804" lon="13.632209720090032">
        <ele>867.91</ele>
      </trkpt>
      <trkpt lat="42.69341776147485" lon="13.632510295137763">
        <ele>869.21</ele>
      </trkpt>
      <trkpt lat="42.693214416503906" lon="13.632810115814209">
        <ele>870.61</ele>
      </trkpt>
      <trkpt lat="42.69308567047119" lon="13.633153438568115">
        <ele>871.94</ele>
      </trkpt>
      <trkpt lat="42.69303185865283" lon="13.633379163220525">
        <ele>873.3</ele>
      </trkpt>
      <trkpt lat="42.692978382110596" lon="13.633604049682617">
        <ele>874.62</ele>
      </trkpt>
      <trkpt lat="42.69291400909424" lon="13.633711338043213">
        <ele>876.01</ele>
      </trkpt>
      <trkpt lat="42.69278526306152" lon="13.63379716873169">
        <ele>877.43</ele>
      </trkpt>
      <trkpt lat="42.69264251925051" lon="13.633792223408818">
        <ele>878.86</ele>
      </trkpt>
      <trkpt lat="42.6924030482769" lon="13.633783925324678">
        <ele>881.8</ele>
      </trkpt>
      <trkpt lat="42.69216299057007" lon="13.63377571105957">
        <ele>883.37</ele>
      </trkpt>
      <trkpt lat="42.692012786865234" lon="13.63377571105957">
        <ele>884.97</ele>
      </trkpt>
      <trkpt lat="42.69179821014404" lon="13.633840084075928">
        <ele>886.56</ele>
      </trkpt>
      <trkpt lat="42.69163736142218" lon="13.63396874628961">
        <ele>888.06</ele>
      </trkpt>
      <trkpt lat="42.69147642888129" lon="13.634097576141357">
        <ele>889.54</ele>
      </trkpt>
      <trkpt lat="42.691261768341064" lon="13.634247779846191">
        <ele>891.24</ele>
      </trkpt>
      <trkpt lat="42.691025733947754" lon="13.63452672958374">
        <ele>892.87</ele>
      </trkpt>
      <trkpt lat="42.69095046445727" lon="13.634752370417118">
        <ele>894.15</ele>
      </trkpt>
      <trkpt lat="42.69087553024292" lon="13.634977340698242">
        <ele>895.37</ele>
      </trkpt>
      <trkpt lat="42.69083261489868" lon="13.6350417137146">
        <ele>896.65</ele>
      </trkpt>
      <trkpt lat="42.69055366516113" lon="13.635170459747314">
        <ele>897.99</ele>
      </trkpt>
      <trkpt lat="42.69038200378418" lon="13.635149002075195">
        <ele>899.39</ele>
      </trkpt>
      <trkpt lat="42.69012467935681" lon="13.635020339861512">
        <ele>900.92</ele>
      </trkpt>
      <trkpt lat="42.68986743874848" lon="13.634891677647829">
        <ele>902.4</ele>
      </trkpt>
      <trkpt lat="42.68960952758789" lon="13.63476276397705">
        <ele>903.7</ele>
      </trkpt>
      <trkpt lat="42.689502239227295" lon="13.634634017944336">
        <ele>904.93</ele>
      </trkpt>
      <trkpt lat="42.689512968063354" lon="13.634279044345021">
        <ele>906.27</ele>
      </trkpt>
      <trkpt lat="42.689523696899414" lon="13.633925914764404">
        <ele>907.66</ele>
      </trkpt>
      <trkpt lat="42.68956661224365" lon="13.633668422698975">
        <ele>908.99</ele>
      </trkpt>
      <trkpt lat="42.68967390060425" lon="13.633453845977783">
        <ele>910.41</ele>
      </trkpt>
      <trkpt lat="42.689716815948486" lon="13.633389472961426">
        <ele>911.68</ele>
      </trkpt>
      <trkpt lat="42.689824271947145" lon="13.633077749982476">
        <ele>912.92</ele>
      </trkpt>
      <trkpt lat="42.68993139266968" lon="13.63276720046997">
        <ele>913.93</ele>
      </trkpt>
      <trkpt lat="42.69003591500223" lon="13.632586486637592">
        <ele>914.95</ele>
      </trkpt>
      <trkpt lat="42.690140353515744" lon="13.632406191900373">
        <ele>916.04</ele>
      </trkpt>
      <trkpt lat="42.690140437334776" lon="13.632406191900373">
        <ele>917.18</ele>
      </trkpt>
      <trkpt lat="42.69016742706299" lon="13.632359504699707">
        <ele>918.38</ele>
      </trkpt>
      <trkpt lat="42.69026415422559" lon="13.632015511393547">
        <ele>919.69</ele>
      </trkpt>
      <trkpt lat="42.69036054611206" lon="13.631672859191895">
        <ele>920.87</ele>
      </trkpt>
      <trkpt lat="42.690467834472656" lon="13.63152265548706">
        <ele>922.24</ele>
      </trkpt>
      <trkpt lat="42.690649973228574" lon="13.631447553634644">
        <ele>924.03</ele>
      </trkpt>
      <trkpt lat="42.69083261489868" lon="13.631372451782227">
        <ele>925.79</ele>
      </trkpt>
      <trkpt lat="42.69091844558716" lon="13.631200790405273">
        <ele>927.55</ele>
      </trkpt>
      <trkpt lat="42.69101517274976" lon="13.630835255607963">
        <ele>929.37</ele>
      </trkpt>
      <trkpt lat="42.69111156463623" lon="13.630471229553223">
        <ele>931.19</ele>
      </trkpt>
      <trkpt lat="42.691272497177124" lon="13.630321025848389">
        <ele>933.12</ele>
      </trkpt>
      <trkpt lat="42.69143351353705" lon="13.630170822143555">
        <ele>935.15</ele>
      </trkpt>
      <trkpt lat="42.69147642888129" lon="13.630106449127197">
        <ele>937.07</ele>
      </trkpt>
      <trkpt lat="42.691519344225526" lon="13.630063533782959">
        <ele>939.03</ele>
      </trkpt>
      <trkpt lat="42.691733837127686" lon="13.629848957061768">
        <ele>941.23</ele>
      </trkpt>
      <trkpt lat="42.69188412465155" lon="13.629569672048092">
        <ele>943.45</ele>
      </trkpt>
      <trkpt lat="42.69203424453735" lon="13.62929105758667">
        <ele>945.77</ele>
      </trkpt>
      <trkpt lat="42.692221999168396" lon="13.629076397046447">
        <ele>948.03</ele>
      </trkpt>
      <trkpt lat="42.69240983761847" lon="13.628861736506224">
        <ele>950.16</ele>
      </trkpt>
      <trkpt lat="42.69259759224951" lon="13.628647159785032">
        <ele>952.14</ele>
      </trkpt>
      <trkpt lat="42.69278526306152" lon="13.628432750701904">
        <ele>953.86</ele>
      </trkpt>
      <trkpt lat="42.69287109375" lon="13.62830400466919">
        <ele>955.65</ele>
      </trkpt>
      <trkpt lat="42.69292482174933" lon="13.628099737688899">
        <ele>957.55</ele>
      </trkpt>
      <trkpt lat="42.692978382110596" lon="13.627896308898926">
        <ele>959.43</ele>
      </trkpt>
      <trkpt lat="42.693042838945985" lon="13.627703189849854">
        <ele>961.29</ele>
      </trkpt>
      <trkpt lat="42.69310712814331" lon="13.62755298614502">
        <ele>963.11</ele>
      </trkpt>
      <trkpt lat="42.693257415667176" lon="13.627424240112305">
        <ele>964.71</ele>
      </trkpt>
      <trkpt lat="42.6934289932251" lon="13.627338409423828">
        <ele>966.18</ele>
      </trkpt>
      <trkpt lat="42.69368648529053" lon="13.627145290374756">
        <ele>967.9</ele>
      </trkpt>
      <trkpt lat="42.693793857470155" lon="13.626951919868588">
        <ele>969.72</ele>
      </trkpt>
      <trkpt lat="42.69390106201172" lon="13.626759052276611">
        <ele>971.51</ele>
      </trkpt>
      <trkpt lat="42.693986892700195" lon="13.626673221588135">
        <ele>973.11</ele>
      </trkpt>
      <trkpt lat="42.694147573783994" lon="13.626662492752075">
        <ele>974.51</ele>
      </trkpt>
      <trkpt lat="42.69430875778198" lon="13.626651763916016">
        <ele>975.87</ele>
      </trkpt>
      <trkpt lat="42.69448025152087" lon="13.62655520439148">
        <ele>977.38</ele>
      </trkpt>
      <trkpt lat="42.69465208053589" lon="13.626458644866943">
        <ele>979.01</ele>
      </trkpt>
      <trkpt lat="42.69493103027344" lon="13.626458644866943">
        <ele>980.45</ele>
      </trkpt>
      <trkpt lat="42.69503831863403" lon="13.626415729522705">
        <ele>981.95</ele>
      </trkpt>
      <trkpt lat="42.69515776075423" lon="13.626271644607186">
        <ele>983.57</ele>
      </trkpt>
      <trkpt lat="42.69515776075423" lon="13.626271728426218">
        <ele>985.02</ele>
      </trkpt>
      <trkpt lat="42.6953611895442" lon="13.626026390120387">
        <ele>986.75</ele>
      </trkpt>
      <trkpt lat="42.695564618334174" lon="13.625781051814556">
        <ele>988.32</ele>
      </trkpt>
      <trkpt lat="42.695767879486084" lon="13.62553596496582">
        <ele>989.86</ele>
      </trkpt>
      <trkpt lat="42.69585371017456" lon="13.625428676605225">
        <ele>991.28</ele>
      </trkpt>
      <trkpt lat="42.69587516784668" lon="13.62527847290039">
        <ele>992.76</ele>
      </trkpt>
      <trkpt lat="42.69583225250244" lon="13.625192642211914">
        <ele>994.29</ele>
      </trkpt>
      <trkpt lat="42.695724964141846" lon="13.625171184539795">
        <ele>995.78</ele>
      </trkpt>
      <trkpt lat="42.69563913345337" lon="13.625192642211914">
        <ele>997.15</ele>
      </trkpt>
      <trkpt lat="42.6954460144043" lon="13.625321388244629">
        <ele>998.57</ele>
      </trkpt>
      <trkpt lat="42.695252895355225" lon="13.625385761260986">
        <ele>999.9</ele>
      </trkpt>
      <trkpt lat="42.69500638358295" lon="13.625385761260986">
        <ele>1001.18</ele>
      </trkpt>
      <trkpt lat="42.694759368896484" lon="13.625385761260986">
        <ele>1002.45</ele>
      </trkpt>
      <trkpt lat="42.694598603993654" lon="13.625332117080688">
        <ele>1003.63</ele>
      </trkpt>
      <trkpt lat="42.6944375038147" lon="13.62527847290039">
        <ele>1004.73</ele>
      </trkpt>
      <trkpt lat="42.69415855407715" lon="13.625407218933105">
        <ele>1005.59</ele>
      </trkpt>
      <trkpt lat="42.69394422881305" lon="13.625375032424927">
        <ele>1006.68</ele>
      </trkpt>
      <trkpt lat="42.693729400634766" lon="13.625342845916748">
        <ele>1007.56</ele>
      </trkpt>
      <trkpt lat="42.693547178059816" lon="13.625267744064331">
        <ele>1008.5</ele>
      </trkpt>
      <trkpt lat="42.69336462020874" lon="13.625192642211914">
        <ele>1009.43</ele>
      </trkpt>
      <trkpt lat="42.69323595799506" lon="13.625214099884033">
        <ele>1010.29</ele>
      </trkpt>
      <trkpt lat="42.69304275512695" lon="13.625342845916748">
        <ele>1011.07</ele>
      </trkpt>
      <trkpt lat="42.69291400909424" lon="13.625364303588867">
        <ele>1011.88</ele>
      </trkpt>
      <trkpt lat="42.69280672073364" lon="13.62527847290039">
        <ele>1012.85</ele>
      </trkpt>
      <trkpt lat="42.69280672073364" lon="13.625106811523438">
        <ele>1014.03</ele>
      </trkpt>
      <trkpt lat="42.69288190640509" lon="13.62491444684565">
        <ele>1015.43</ele>
      </trkpt>
      <trkpt lat="42.69295700825751" lon="13.624722752720118">
        <ele>1016.92</ele>
      </trkpt>
      <trkpt lat="42.692999839782715" lon="13.624613285064697">
        <ele>1020.03</ele>
      </trkpt>
      <trkpt lat="42.69315004348755" lon="13.62452745437622">
        <ele>1021.99</ele>
      </trkpt>
      <trkpt lat="42.69338616169989" lon="13.62452745437622">
        <ele>1023.97</ele>
      </trkpt>
      <trkpt lat="42.69364356994629" lon="13.624484539031982">
        <ele>1025.94</ele>
      </trkpt>
      <trkpt lat="42.69375094212592" lon="13.624312710016966">
        <ele>1027.96</ele>
      </trkpt>
      <trkpt lat="42.69385814666748" lon="13.624141216278076">
        <ele>1029.99</ele>
      </trkpt>
      <trkpt lat="42.693986892700195" lon="13.624076843261719">
        <ele>1031.99</ele>
      </trkpt>
      <trkpt lat="42.69419048912823" lon="13.624012470245361">
        <ele>1033.91</ele>
      </trkpt>
      <trkpt lat="42.69439458847046" lon="13.623948097229004">
        <ele>1035.94</ele>
      </trkpt>
      <trkpt lat="42.69468384794891" lon="13.623980199918151">
        <ele>1037.98</ele>
      </trkpt>
      <trkpt lat="42.694973945617676" lon="13.624012470245361">
        <ele>1039.91</ele>
      </trkpt>
      <trkpt lat="42.69510269165039" lon="13.623948097229004">
        <ele>1042.06</ele>
      </trkpt>
      <trkpt lat="42.695252895355225" lon="13.623840808868408">
        <ele>1044.36</ele>
      </trkpt>
      <trkpt lat="42.69538164138794" lon="13.623658251017332">
        <ele>1046.9</ele>
      </trkpt>
      <trkpt lat="42.695510387420654" lon="13.623476028442383">
        <ele>1049.46</ele>
      </trkpt>
      <trkpt lat="42.69570350646973" lon="13.623390197753906">
        <ele>1051.6</ele>
      </trkpt>
      <trkpt lat="42.695896374061704" lon="13.623336553573608">
        <ele>1053.62</ele>
      </trkpt>
      <trkpt lat="42.69608974456787" lon="13.62328290939331">
        <ele>1055.6</ele>
      </trkpt>
      <trkpt lat="42.69633265212178" lon="13.623175704851747">
        <ele>1057.64</ele>
      </trkpt>
      <trkpt lat="42.696575643494725" lon="13.623068500310183">
        <ele>1059.69</ele>
      </trkpt>
      <trkpt lat="42.69681930541992" lon="13.622961044311523">
        <ele>1061.62</ele>
      </trkpt>
      <trkpt lat="42.69708358682692" lon="13.622975293546915">
        <ele>1063.13</ele>
      </trkpt>
      <trkpt lat="42.69734786823392" lon="13.622989542782307">
        <ele>1064.54</ele>
      </trkpt>
      <trkpt lat="42.69761323928833" lon="13.623003959655762">
        <ele>1065.87</ele>
      </trkpt>
      <trkpt lat="42.69769906997681" lon="13.622961044311523">
        <ele>1067.53</ele>
      </trkpt>
      <trkpt lat="42.697720527648926" lon="13.622832298278809">
        <ele>1069.22</ele>
      </trkpt>
      <trkpt lat="42.69767761230469" lon="13.62278938293457">
        <ele>1070.96</ele>
      </trkpt>
      <trkpt lat="42.69751684740186" lon="13.62277865409851">
        <ele>1072.86</ele>
      </trkpt>
      <trkpt lat="42.6973557472229" lon="13.622767925262451">
        <ele>1074.75</ele>
      </trkpt>
      <trkpt lat="42.69715717993677" lon="13.622718304395676">
        <ele>1076.68</ele>
      </trkpt>
      <trkpt lat="42.69692659378052" lon="13.622660636901855">
        <ele>1079.77</ele>
      </trkpt>
      <trkpt lat="42.696647895500064" lon="13.62257489003241">
        <ele>1081.26</ele>
      </trkpt>
      <trkpt lat="42.69636928103864" lon="13.622489143162966">
        <ele>1082.53</ele>
      </trkpt>
      <trkpt lat="42.6960898283869" lon="13.622403144836426">
        <ele>1083.82</ele>
      </trkpt>
      <trkpt lat="42.69608974456787" lon="13.622403144836426">
        <ele>1084.96</ele>
      </trkpt>
      <trkpt lat="42.69583258777857" lon="13.62237456254661">
        <ele>1086.23</ele>
      </trkpt>
      <trkpt lat="42.695575430989265" lon="13.622345980256796">
        <ele>1087.32</ele>
      </trkpt>
      <trkpt lat="42.695317352190614" lon="13.62231731414795">
        <ele>1088.54</ele>
      </trkpt>
      <trkpt lat="42.69531726837158" lon="13.62231731414795">
        <ele>1089.73</ele>
      </trkpt>
      <trkpt lat="42.69506002776325" lon="13.622324438765645">
        <ele>1091.21</ele>
      </trkpt>
      <trkpt lat="42.694802870973945" lon="13.62233156338334">
        <ele>1092.72</ele>
      </trkpt>
      <trkpt lat="42.69454479217529" lon="13.622338771820068">
        <ele>1093.68</ele>
      </trkpt>
      <trkpt lat="42.69435167312622" lon="13.622188568115234">
        <ele>1095.07</ele>
      </trkpt>
      <trkpt lat="42.69415855407715" lon="13.621931076049805">
        <ele>1096.63</ele>
      </trkpt>
      <trkpt lat="42.69409418106079" lon="13.621759414672852">
        <ele>1098.41</ele>
      </trkpt>
      <trkpt lat="42.69405109807849" lon="13.621425982564688">
        <ele>1100.76</ele>
      </trkpt>
      <trkpt lat="42.694008350372314" lon="13.621094226837158">
        <ele>1102.84</ele>
      </trkpt>
      <trkpt lat="42.694019079208374" lon="13.620782336220145">
        <ele>1104.8</ele>
      </trkpt>
      <trkpt lat="42.694029808044434" lon="13.620471954345703">
        <ele>1106.59</ele>
      </trkpt>
      <trkpt lat="42.69399393349886" lon="13.620185125619173">
        <ele>1108.18</ele>
      </trkpt>
      <trkpt lat="42.693958058953285" lon="13.619898380711675">
        <ele>1109.99</ele>
      </trkpt>
      <trkpt lat="42.69392251968384" lon="13.619613647460938">
        <ele>1111.92</ele>
      </trkpt>
      <trkpt lat="42.69384725019336" lon="13.619387922808528">
        <ele>1114.07</ele>
      </trkpt>
      <trkpt lat="42.693772315979004" lon="13.619163036346436">
        <ele>1116.53</ele>
      </trkpt>
      <trkpt lat="42.69376150332391" lon="13.618861874565482">
        <ele>1118.99</ele>
      </trkpt>
      <trkpt lat="42.693750858306885" lon="13.6185622215271">
        <ele>1120.51</ele>
      </trkpt>
      <trkpt lat="42.69366502761841" lon="13.618347644805908">
        <ele>1121.55</ele>
      </trkpt>
    </trkseg>
  </trk>
</gpx>
